STARLINK-1513           
1 45786U 20038BJ  26068.62517786  .00011742  00000+0  40750-3 0  9990
2 45786  53.1601 191.4505 0000951 101.2977 258.8131 15.30234927316830
TEVEL2-5                
1 63214U 25052E   26068.96660006  .00021339  00000+0  71765-3 0  9991
2 63214  97.4013 325.3677 0004700  95.3936 264.7842 15.30817434 54919
